[{"OBJECT_NAME":"STARLINK-5735","OBJECT_ID":"2023-020AL","EPOCH":"2026-03-09T22:00:01.999584","MEAN_MOTION":15.06279233,"ECCENTRICITY":5.97e-5,"INCLINATION":43.0003,"RA_OF_ASC_NODE":350.7132,"ARG_OF_PERICENTER":265.6856,"MEAN_ANOMALY":330.5887,"EPHEMERIS_TYPE":0,"CLASSIFICATION_TYPE":"U","NORAD_CAT_ID":55603,"ELEMENT_SET_NO":999,"REV_AT_EPOCH":572,"BSTAR":0.0010089765,"MEAN_MOTION_DOT":0.00014888,"MEAN_MOTION_DDOT":0},{"OBJECT_NAME":"OBJECT E","OBJECT_ID":"2025-292E","EPOCH":"2026-03-09T23:06:13.350528","MEAN_MOTION":15.05603019,"ECCENTRICITY":0.00142209,"INCLINATION":97.6388,"RA_OF_ASC_NODE":145.6972,"ARG_OF_PERICENTER":344.4497,"MEAN_ANOMALY":15.6291,"EPHEMERIS_TYPE":0,"CLASSIFICATION_TYPE":"U","NORAD_CAT_ID":66997,"ELEMENT_SET_NO":999,"REV_AT_EPOCH":1350,"BSTAR":0.00040225725,"MEAN_MOTION_DOT":5.752e-5,"MEAN_MOTION_DDOT":0}]
